COSMOS 2058             
1 20465U 90010A   26202.28161536  .00002432  00000+0  13919-3 0  9997
2 20465  82.4675 275.7288 0008472 225.1844 134.8699 15.12181367962425
SL-14 R/B               
1 20466U 90010B   26202.29384705  .00000262  00000+0  28793-4 0  9990
2 20466  82.5040 141.9162 0018765 215.9110 144.0845 14.83665476948297
SL-14 R/B               
1 20511U 90018B   26202.23776499  .00000252  00000+0  28642-4 0  9990
2 20511  82.5213  98.2822 0016564  17.7699 342.4091 14.82236674942364
HST                     
1 20580U 90037B   26202.36670297  .00004372  00000+0  13390-3 0  9990
2 20580  28.4722 206.9020 0002079 163.2375 196.8290 15.31101055793811
SL-16 R/B               
1 20625U 90046B   26202.51618499  .00000272  00000+0  16495-3 0  9997
2 20625  70.9997  16.8470 0012216 103.0978 257.1509 14.15028858867321
COSMOS 2084             
1 20663U 90055A   26202.31922665  .00001076  00000+0  86795-4 0  9994
2 20663  62.7874 239.5813 0008857 323.5478  36.5019 15.06237375956445
SL-6 R/B(2)             
1 20666U 90055D   26202.22258604  .00001497  00000+0  11991-3 0  9994
2 20666  62.7810 159.5472 0046057   9.8317 350.3673 15.04105447958278
SL-8 R/B                
1 20775U 90078B   26202.30520808  .00008716  00000+0  24710-3 0  9991
2 20775  82.9031 130.7787 0342855 282.7062  73.6042 14.93674595829210
SL-8 R/B                
1 21088U 91006B   26202.14024228  .00000085  00000+0  70050-4 0  9998
2 21088  82.9402  70.7718 0023080  24.4312  89.7123 13.77510158782448
OKEAN-3                 
1 21397U 91039A   26202.10457635  .00001917  00000+0  13133-3 0  9998
2 21397  82.5150 207.4868 0012955 231.7716 128.2345 15.05456593885109
COSMOS 2151             
1 21422U 91042A   26202.60349584  .00001208  00000+0  93635-4 0  9998
2 21422  82.4983 314.4671 0011386 332.9585  27.1045 15.00525915883277
SL-14 R/B               
1 21423U 91042B   26202.18405546  .00000230  00000+0  25981-4 0  9996
2 21423  82.4928  95.0151 0017495 157.5748 202.6235 14.81920261872844
ERS-1                   
1 21574U 91050A   26202.50138562  .00000246  00000+0  93193-4 0  9996
2 21574  98.7797 224.0373 0032324 163.2607 196.9654 14.39536611834989
ARIANE 40 R/B           
1 21610U 91050F   26202.58143622  .00000167  00000+0  62361-4 0  9993
2 21610  98.1858 249.6554 0003842  46.9840 313.1672 14.42974293838304
INTERCOSMOS 25          
1 21819U 91086A   26202.11897452  .00000821  00000+0  15865-3 0  9992
2 21819  82.5999 229.2764 1484855 189.1446 167.9556 12.12244914512855
SL-8 R/B                
1 21876U 92008B   26202.38755339  .00000140  00000+0  12748-3 0  9997
2 21876  82.9279 168.3601 0035939 119.8365   2.0668 13.75984976727805
SL-8 R/B                
1 21938U 92020B   26202.10860248 -.00000012  00000+0 -28132-4 0  9991
2 21938  82.9275  54.6561 0027792 286.2877 197.1533 13.75549804719475
USA 81                  
1 21949U 92023A   26202.08517376  .00000108  00000+0  32459-4 0  9995
2 21949  85.0047  54.4369 0001721  65.0035 295.1336 14.32405965113881
COSMOS 2219             
1 22219U 92076A   26202.14446013 -.00000285  00000+0 -12467-3 0  9994
2 22219  71.0607  99.0876 0018607 348.6200  11.4499 14.14106367737247
SL-16 R/B               
1 22220U 92076B   26202.34282990 -.00000211  00000+0 -80977-4 0  9991
2 22220  70.9996 266.8315 0015026 254.2995 176.2550 14.16877553740768
COSMOS 2221             
1 22236U 92080A   26202.57242662  .00001189  00000+0  10180-3 0  9991
2 22236  82.5052 150.8211 0015928 100.7753 259.5263 14.96616619800813
SL-16 R/B               
1 22285U 92093B   26202.65842972 -.00000199  00000+0 -77774-4 0  9993
2 22285  71.0211  83.0273 0002171 115.9613 244.1734 14.15463447732111
COSMOS 2228             
1 22286U 92094A   26202.56337922  .00001197  00000+0  99693-4 0  9990
2 22286  82.5184 109.1153 0016796 206.2965 153.7407 14.97688192796092
SL-16 R/B               
1 22566U 93016B   26202.35944842  .00000259  00000+0  15749-3 0  9995
2 22566  71.0086 294.4340 0008524 126.9279 233.2626 14.15316416721080
COSMOS 2242             
1 22626U 93024A   26202.27126014  .00001122  00000+0  95067-4 0  9997
2 22626  82.5203 138.9341 0015079 210.7042 149.3300 14.96996702800378
SL-16 R/B               
1 22803U 93059B   26202.08611060  .00000213  00000+0  12919-3 0  9995
2 22803  70.9902  89.8180 0017004 359.7266   0.3845 14.17250501698434
ARIANE 40 R/B           
1 22830U 93061H   26202.42105974  .00000087  00000+0  47766-4 0  9996
2 22830  98.4801 268.5641 0009641 245.0606 114.9577 14.32920058713258
COSMOS 2278             
1 23087U 94023A   26202.54747571  .00000226  00000+0  14256-3 0  9990
2 23087  71.0515 255.0352 0009286 196.1950 163.8878 14.14395306663731
SL-16 R/B               
1 23088U 94023B   26202.25111393  .00000342  00000+0  20133-3 0  9996
2 23088  70.9996 150.3940 0001253 103.6489 256.4773 14.15027931664987
SL-16 R/B               
1 23343U 94074B   26202.08985319  .00000237  00000+0  38276-4 0  9995
2 23343  97.6984 227.3966 0007563 137.2368 239.9687 14.79527449706971
