OBJECT_NAME,OBJECT_ID,EPOCH,MEAN_MOTION,ECCENTRICITY,INCLINATION,RA_OF_ASC_NODE,ARG_OF_PERICENTER,MEAN_ANOMALY,EPHEMERIS_TYPE,CLASSIFICATION_TYPE,NORAD_CAT_ID,ELEMENT_SET_NO,REV_AT_EPOCH,BSTAR,MEAN_MOTION_DOT,MEAN_MOTION_DDOT
COSMOS 2058,1990-010A,2026-07-21T06:45:31.567104,15.12181367,.00084726,82.4675,275.7288,225.1844,134.8699,0,U,20465,999,96242,.13919212E-3,.2432E-4,0
SL-14 R/B,1990-010B,2026-07-21T07:03:08.385120,14.83665476,.00187653,82.5040,141.9162,215.9110,144.0845,0,U,20466,999,94829,.28793002E-4,.262E-5,0
SL-14 R/B,1990-018B,2026-07-21T05:42:22.895136,14.82236674,.00165649,82.5213,98.2822,17.7699,342.4091,0,U,20511,999,94236,.28642374E-4,.252E-5,0
HST,1990-037B,2026-07-21T08:48:03.136608,15.31101055,.0002079,28.4722,206.9020,163.2375,196.8290,0,U,20580,999,79381,.13389636E-3,.4372E-4,0
SL-16 R/B,1990-046B,2026-07-21T12:23:18.383136,14.15028858,.00122169,70.9997,16.8470,103.0978,257.1509,0,U,20625,999,86732,.16494727E-3,.272E-5,0
COSMOS 2084,1990-055A,2026-07-21T07:39:41.182560,15.06237375,.00088577,62.7874,239.5813,323.5478,36.5019,0,U,20663,999,95644,.86795407E-4,.1076E-4,0
SL-6 R/B(2),1990-055D,2026-07-21T05:20:31.433856,15.04105447,.0046057,62.7810,159.5472,9.8317,350.3673,0,U,20666,999,95827,.11990827E-3,.1497E-4,0
SL-8 R/B,1990-078B,2026-07-21T07:19:29.978112,14.93674595,.03428559,82.9031,130.7787,282.7062,73.6042,0,U,20775,999,82921,.24709777E-3,.8716E-4,0
SL-8 R/B,1991-006B,2026-07-21T03:21:56.932992,13.77510158,.00230802,82.9402,70.7718,24.4312,89.7123,0,U,21088,999,78244,.70049858E-4,.85E-6,0
OKEAN-3,1991-039A,2026-07-21T02:30:35.396640,15.05456593,.00129558,82.5150,207.4868,231.7716,128.2345,0,U,21397,999,88510,.13133472E-3,.1917E-4,0
COSMOS 2151,1991-042A,2026-07-21T14:29:02.040576,15.00525915,.00113865,82.4983,314.4671,332.9585,27.1045,0,U,21422,999,88327,.93634992E-4,.1208E-4,0
SL-14 R/B,1991-042B,2026-07-21T04:25:02.391744,14.81920261,.00174956,82.4928,95.0151,157.5748,202.6235,0,U,21423,999,87284,.25980559E-4,.23E-5,0
ERS-1,1991-050A,2026-07-21T12:01:59.717568,14.39536611,.00323242,98.7797,224.0373,163.2607,196.9654,0,U,21574,999,83498,.9319267E-4,.246E-5,0
ARIANE 40 R/B,1991-050F,2026-07-21T13:57:16.089408,14.42974293,.00038426,98.1858,249.6554,46.9840,313.1672,0,U,21610,999,83830,.62361424E-4,.167E-5,0
INTERCOSMOS 25,1991-086A,2026-07-21T02:51:19.398528,12.12244914,.1484855,82.5999,229.2764,189.1446,167.9556,0,U,21819,999,51285,.1586486E-3,.821E-5,0
SL-8 R/B,1992-008B,2026-07-21T09:18:04.612896,13.75984976,.00359397,82.9279,168.3601,119.8365,2.0668,0,U,21876,999,72780,.12747648E-3,.14E-5,0
SL-8 R/B,1992-020B,2026-07-21T02:36:23.254272,13.75549804,.00277926,82.9275,54.6561,286.2877,197.1533,0,U,21938,999,71947,-.28131664E-4,-.12E-6,0
USA 81,1992-023A,2026-07-21T02:02:39.012864,14.32405965,.00017212,85.0047,54.4369,65.0035,295.1336,0,U,21949,999,11388,.32458863E-4,.108E-5,0
COSMOS 2219,1992-076A,2026-07-21T03:28:01.355232,14.14106367,.00186079,71.0607,99.0876,348.6200,11.4499,0,U,22219,999,73724,-.12466676E-3,-.285E-5,0
SL-16 R/B,1992-076B,2026-07-21T08:13:40.503360,14.16877553,.00150268,70.9996,266.8315,254.2995,176.2550,0,U,22220,999,74076,-.80976788E-4,-.211E-5,0
COSMOS 2221,1992-080A,2026-07-21T13:44:17.659968,14.96616619,.00159286,82.5052,150.8211,100.7753,259.5263,0,U,22236,999,80081,.10179612E-3,.1189E-4,0
SL-16 R/B,1992-093B,2026-07-21T15:48:08.327808,14.15463447,.00021717,71.0211,83.0273,115.9613,244.1734,0,U,22285,999,73211,-.77773557E-4,-.199E-5,0
COSMOS 2228,1992-094A,2026-07-21T13:31:15.964608,14.97688192,.00167967,82.5184,109.1153,206.2965,153.7407,0,U,22286,999,79609,.99693327E-4,.1197E-4,0
SL-16 R/B,1993-016B,2026-07-21T08:37:36.343488,14.15316416,.0008524,71.0086,294.4340,126.9279,233.2626,0,U,22566,999,72108,.15749062E-3,.259E-5,0
COSMOS 2242,1993-024A,2026-07-21T06:30:36.876096,14.96996702,.00150791,82.5203,138.9341,210.7042,149.3300,0,U,22626,999,80037,.95066839E-4,.1122E-4,0
SL-16 R/B,1993-059B,2026-07-21T02:03:59.955840,14.17250501,.0017004,70.9902,89.8180,359.7266,0.3845,0,U,22803,999,69843,.12919309E-3,.213E-5,0
ARIANE 40 R/B,1993-061H,2026-07-21T10:06:19.561536,14.32920058,.00096414,98.4801,268.5641,245.0606,114.9577,0,U,22830,999,71325,.47766219E-4,.87E-6,0
COSMOS 2278,1994-023A,2026-07-21T13:08:21.901344,14.14395306,.0009286,71.0515,255.0352,196.1950,163.8878,0,U,23087,999,66373,.14255758E-3,.226E-5,0
SL-16 R/B,1994-023B,2026-07-21T06:01:36.243552,14.15027931,.0001253,70.9996,150.3940,103.6489,256.4773,0,U,23088,999,66498,.20133349E-3,.342E-5,0
SL-16 R/B,1994-074B,2026-07-21T02:09:23.315616,14.79527449,.00075635,97.6984,227.3966,137.2368,239.9687,0,U,23343,999,70697,.38275903E-4,.237E-5,0
